OBJECT_NAME,OBJECT_ID,EPOCH,MEAN_MOTION,ECCENTRICITY,INCLINATION,RA_OF_ASC_NODE,ARG_OF_PERICENTER,MEAN_ANOMALY,EPHEMERIS_TYPE,CLASSIFICATION_TYPE,NORAD_CAT_ID,ELEMENT_SET_NO,REV_AT_EPOCH,BSTAR,MEAN_MOTION_DOT,MEAN_MOTION_DDOT
STARLINK-36717,2026-026Y,2026-03-10T06:00:02.000160,15.49623372,.00010881,97.2941,123.8609,93.4683,231.3711,0,U,67743,999,554,-.25200559E-1,-.1262248E-1,0
STARLINK-36692,2026-026Z,2026-03-10T06:00:02.000160,15.49236294,.00007715,97.2846,123.8439,84.5625,199.4090,0,U,67744,999,540,-.74936802E-3,-.40702E-3,0
2026-027A,2026-027A,2026-03-10T07:07:26.031648,15.17726317,.0010221,97.4903,198.3034,192.3186,167.7800,0,U,67746,999,395,.57911283E-3,.1164E-3,0
2026-027B,2026-027B,2026-03-10T07:04:56.653824,15.17826748,.00103298,97.4898,198.3037,194.7062,165.3873,0,U,67747,999,395,.57539689E-3,.11598E-3,0
2026-027C,2026-027C,2026-03-10T07:02:53.706624,15.17826927,.00107042,97.4910,198.3097,196.9719,163.1158,0,U,67748,999,395,.40984688E-3,.8239E-4,0
2026-027D,2026-027D,2026-03-10T06:57:05.492160,15.18187395,.00102894,97.4905,198.3136,202.0938,157.9853,0,U,67749,999,390,.55513202E-3,.11303E-3,0
2026-027E,2026-027E,2026-03-10T06:57:25.263936,15.18135599,.00095617,97.4916,198.3170,202.6686,157.4127,0,U,67750,999,395,.57941394E-3,.11782E-3,0
2026-027F,2026-027F,2026-03-09T19:49:10.682112,15.18180546,.00096725,97.4922,197.8630,203.5802,156.4990,0,U,67751,999,388,.22390931E-3,.4513E-4,0
2026-027G,2026-027G,2026-03-10T07:25:21.335808,15.12154281,.00120574,97.4906,198.2895,225.8871,134.1368,0,U,67752,999,395,.57697491E-3,.9907E-4,0
2026-028A,2026-028A,2026-03-09T07:40:28.918560,1.00243707,.00057988,0.4716,290.3272,45.7484,23.8758,0,U,67756,999,26,0,-.107E-5,0
JAM-E JAM 1,2026-028B,2026-03-10T05:24:22.484736,1.00230090,.00056999,0.4918,285.9651,134.2018,223.1303,0,U,67757,999,12,0,.157E-5,0
KUIPER-00159,2026-030A,2026-03-09T15:10:26.374944,15.35788737,.0005012,51.8841,219.4438,44.9181,315.2210,0,U,67764,999,508,.76096E-3,.2662E-3,0
KUIPER-00160,2026-030B,2026-03-09T18:20:16.137888,15.35623214,.00052725,51.8805,218.8175,54.1950,305.9525,0,U,67765,999,510,.10485695E-2,.36682E-3,0
KUIPER-00177,2026-030C,2026-03-10T06:00:02.000160,15.34070096,.00018598,51.8838,216.3082,5.9807,242.2699,0,U,67766,999,507,-.25414396E-1,-.789564E-2,0
KUIPER-00178,2026-030D,2026-03-09T15:15:28.534752,15.35571325,.0006451,51.8828,219.4634,46.2779,313.8741,0,U,67767,999,508,.70511E-3,.24464E-3,0
KUIPER-00180,2026-030E,2026-03-10T06:19:49.222560,15.31077810,.001447,51.8823,216.9022,71.7423,288.5134,0,U,67768,999,517,.405074E-2,.125479E-2,0
KUIPER-00197,2026-030F,2026-03-09T10:14:11.772960,15.36379862,.00016005,51.8831,220.3144,67.2198,292.8958,0,U,67769,999,505,.13525672E-2,.48662E-3,0
KUIPER-00198,2026-030G,2026-03-09T15:03:31.007808,15.36089150,.0003583,51.8806,219.4038,35.8948,324.2279,0,U,67770,999,508,.95567E-3,.33885E-3,0
KUIPER-00199,2026-030H,2026-03-09T20:22:54.746400,15.34402964,.00108419,51.8811,218.6320,59.6620,300.5437,0,U,67771,999,511,.10339616E-2,.34812E-3,0
KUIPER-00200,2026-030J,2026-03-09T16:14:07.210176,15.37115765,.00010486,51.8819,218.9881,264.9914,95.0953,0,U,67772,999,509,.70618576E-3,.25755E-3,0
KUIPER-00203,2026-030K,2026-03-10T06:00:02.000160,15.11498634,.0011375,51.8873,217.5032,65.9613,272.1551,0,U,67773,999,374,-.10658461E+0,-.1655441E-1,0
KUIPER-00205,2026-030L,2026-03-10T03:25:30.435168,15.36475316,.00033067,51.8812,216.8590,22.6040,337.5092,0,U,67774,999,516,.13113243E-2,.47309E-3,0
KUIPER-00208,2026-030M,2026-03-09T16:08:08.024640,15.32208734,.00155248,51.8846,219.6993,57.3146,302.9333,0,U,67775,999,508,.13882708E-2,.43852E-3,0
KUIPER-00209,2026-030N,2026-03-09T14:49:43.575744,15.30161950,.0012191,51.8838,220.0775,59.1967,301.0215,0,U,67776,999,507,.11963E-2,.35298E-3,0
KUIPER-00213,2026-030P,2026-03-10T01:31:03.909216,15.32729070,.00148494,51.8820,217.8092,62.8967,297.3531,0,U,67777,999,514,-.28857209E-2,-.92175E-3,0
KUIPER-00214,2026-030Q,2026-03-09T17:52:54.023808,15.36794517,.00003525,51.8850,218.7034,289.1658,70.9291,0,U,67778,999,510,.76864759E-3,.27783E-3,0
KUIPER-00215,2026-030R,2026-03-09T17:12:37.719936,15.34495766,.00103674,51.8839,219.2565,59.8870,300.3142,0,U,67779,999,509,.89268606E-3,.30069E-3,0
KUIPER-00218,2026-030S,2026-03-09T15:22:12.930816,15.35202151,.0006939,51.8829,219.4934,50.9637,309.1966,0,U,67780,999,508,.64584E-3,.22104E-3,0
KUIPER-00220,2026-030T,2026-03-09T17:06:26.319168,15.34795258,.00090502,51.8809,219.2195,53.9230,306.2592,0,U,67781,999,509,.10498333E-2,.35785E-3,0
KUIPER-00222,2026-030U,2026-03-10T06:00:02.000160,15.32165100,.00173652,51.8815,216.9622,69.1536,217.2258,0,U,67782,999,502,.23846305E-2,.7588E-3,0
