STARLINK-36717          
1 67743U 26026Y   26069.25002315 -.01262248  00000+0 -25201-1 0  9991
2 67743  97.2941 123.8609 0001088  93.4683 231.3711 15.49623372  5544
STARLINK-36692          
1 67744U 26026Z   26069.25002315 -.00040702  00000+0 -74937-3 0  9992
2 67744  97.2846 123.8439 0000771  84.5625 199.4090 15.49236294  5407
2026-027A               
1 67746U 26027A   26069.29682907  .00011640  00000+0  57911-3 0  9990
2 67746  97.4903 198.3034 0010221 192.3186 167.7800 15.17726317  3954
2026-027B               
1 67747U 26027B   26069.29510016  .00011598  00000+0  57540-3 0  9992
2 67747  97.4898 198.3037 0010329 194.7062 165.3873 15.17826748  3952
2026-027C               
1 67748U 26027C   26069.29367716  .00008239  00000+0  40985-3 0  9993
2 67748  97.4910 198.3097 0010704 196.9719 163.1158 15.17826927  3955
2026-027D               
1 67749U 26027D   26069.28964690  .00011303  00000+0  55513-3 0  9996
2 67749  97.4905 198.3136 0010289 202.0938 157.9853 15.18187395  3902
2026-027E               
1 67750U 26027E   26069.28987574  .00011782  00000+0  57941-3 0  9992
2 67750  97.4916 198.3170 0009561 202.6686 157.4127 15.18135599  3954
2026-027F               
1 67751U 26027F   26068.82581808  .00004513  00000+0  22391-3 0  9997
2 67751  97.4922 197.8630 0009672 203.5802 156.4990 15.18180546  3881
2026-027G               
1 67752U 26027G   26069.30927472  .00009907  00000+0  57697-3 0  9992
2 67752  97.4906 198.2895 0012057 225.8871 134.1368 15.12154281  3957
2026-028A               
1 67756U 26028A   26068.31977915 -.00000107  00000+0  00000+0 0  9990
2 67756   0.4716 290.3272 0005798  45.7484  23.8758  1.00243707   262
JAM-E JAM 1             
1 67757U 26028B   26069.22526024  .00000157  00000+0  00000+0 0  9997
2 67757   0.4918 285.9651 0005699 134.2018 223.1303  1.00230090   122
KUIPER-00159            
1 67764U 26030A   26068.63224971  .00026620  00000+0  76096-3 0  9993
2 67764  51.8841 219.4438 0005012  44.9181 315.2210 15.35788737  5086
KUIPER-00160            
1 67765U 26030B   26068.76407567  .00036682  00000+0  10486-2 0  9991
2 67765  51.8805 218.8175 0005272  54.1950 305.9525 15.35623214  5109
KUIPER-00177            
1 67766U 26030C   26069.25002315 -.00789564  00000+0 -25414-1 0  9991
2 67766  51.8838 216.3082 0001859   5.9807 242.2699 15.34070096  5072
KUIPER-00178            
1 67767U 26030D   26068.63574693  .00024464  00000+0  70511-3 0  9995
2 67767  51.8828 219.4634 0006451  46.2779 313.8741 15.35571325  5084
KUIPER-00180            
1 67768U 26030E   26069.26376415  .00125479  00000+0  40507-2 0  9997
2 67768  51.8823 216.9022 0014470  71.7423 288.5134 15.31077810  5172
KUIPER-00197            
1 67769U 26030F   26068.42652515  .00048662  00000+0  13526-2 0  9992
2 67769  51.8831 220.3144 0001600  67.2198 292.8958 15.36379862  5052
KUIPER-00198            
1 67770U 26030G   26068.62744222  .00033885  00000+0  95567-3 0  9990
2 67770  51.8806 219.4038 0003583  35.8948 324.2279 15.36089150  5080
KUIPER-00199            
1 67771U 26030H   26068.84924475  .00034812  00000+0  10340-2 0  9991
2 67771  51.8811 218.6320 0010841  59.6620 300.5437 15.34402964  5115
KUIPER-00200            
1 67772U 26030J   26068.67647234  .00025755  00000+0  70619-3 0  9990
2 67772  51.8819 218.9881 0001048 264.9914  95.0953 15.37115765  5094
KUIPER-00203            
1 67773U 26030K   26069.25002315 -.01655441  00000+0 -10658+0 0  9998
2 67773  51.8873 217.5032 0011375  65.9613 272.1551 15.11498634  3740
KUIPER-00205            
1 67774U 26030L   26069.14271337  .00047309  00000+0  13113-2 0  9996
2 67774  51.8812 216.8590 0003306  22.6040 337.5092 15.36475316  5167
KUIPER-00208            
1 67775U 26030M   26068.67231510  .00043852  00000+0  13883-2 0  9996
2 67775  51.8846 219.6993 0015524  57.3146 302.9333 15.32208734  5089
KUIPER-00209            
1 67776U 26030N   26068.61786546  .00035298  00000+0  11963-2 0  9997
2 67776  51.8838 220.0775 0012191  59.1967 301.0215 15.30161950  5077
KUIPER-00213            
1 67777U 26030P   26069.06323969 -.00092175  00000+0 -28857-2 0  9993
2 67777  51.8820 217.8092 0014849  62.8967 297.3531 15.32729070  5149
KUIPER-00214            
1 67778U 26030Q   26068.74506972  .00027783  00000+0  76865-3 0  9999
2 67778  51.8850 218.7034 0000352 289.1658  70.9291 15.36794517  5100
KUIPER-00215            
1 67779U 26030R   26068.71710324  .00030069  00000+0  89269-3 0  9998
2 67779  51.8839 219.2565 0010367  59.8870 300.3142 15.34495766  5093
KUIPER-00218            
1 67780U 26030S   26068.64042744  .00022104  00000+0  64584-3 0  9990
2 67780  51.8829 219.4934 0006939  50.9637 309.1966 15.35202151  5084
KUIPER-00220            
1 67781U 26030T   26068.71280462  .00035785  00000+0  10498-2 0  9993
2 67781  51.8809 219.2195 0009050  53.9230 306.2592 15.34795258  5097
KUIPER-00222            
1 67782U 26030U   26069.25002315  .00075880  00000+0  23846-2 0  9994
2 67782  51.8815 216.9622 0017365  69.1536 217.2258 15.32165100  5028
